CCSDS_OMM_VERS = 2.0
CREATION_DATE  = 
ORIGINATOR     = 

OBJECT_NAME    = CZ-2C R/B
OBJECT_ID      = 2022-132E
CENTER_NAME    = EARTH
REF_FRAME      = TEME
TIME_SYSTEM    = UTC
MEAN_ELEMENT_THEORY = SGP/SGP4

EPOCH          = 2026-02-09T23:47:48.470208
MEAN_MOTION    = 15.59435353
ECCENTRICITY   = .0018496
INCLINATION    = 97.2962
RA_OF_ASC_NODE = 43.5238
ARG_OF_PERICENTER = 184.5586
MEAN_ANOMALY   = 175.5505

EPHEMERIS_TYPE = 0
CLASSIFICATION_TYPE = U
NORAD_CAT_ID   = 54039
ELEMENT_SET_NO = 999
REV_AT_EPOCH   = 18605
BSTAR          = .44287E-3
MEAN_MOTION_DOT = .35281E-3
MEAN_MOTION_DDOT = 0

CCSDS_OMM_VERS = 2.0
CREATION_DATE  = 
ORIGINATOR     = 

OBJECT_NAME    = GSLV R/B
OBJECT_ID      = 2022-138AN
CENTER_NAME    = EARTH
REF_FRAME      = TEME
TIME_SYSTEM    = UTC
MEAN_ELEMENT_THEORY = SGP/SGP4

EPOCH          = 2026-02-09T20:09:31.133952
MEAN_MOTION    = 14.96559791
ECCENTRICITY   = .0019397
INCLINATION    = 87.3860
RA_OF_ASC_NODE = 175.6808
ARG_OF_PERICENTER = 251.3107
MEAN_ANOMALY   = 108.6019

EPHEMERIS_TYPE = 0
CLASSIFICATION_TYPE = U
NORAD_CAT_ID   = 54149
ELEMENT_SET_NO = 999
REV_AT_EPOCH   = 17976
BSTAR          = .37608E-3
MEAN_MOTION_DOT = .432E-4
MEAN_MOTION_DDOT = 0

CCSDS_OMM_VERS = 2.0
CREATION_DATE  = 
ORIGINATOR     = 

OBJECT_NAME    = XRISM
OBJECT_ID      = 2023-137A
CENTER_NAME    = EARTH
REF_FRAME      = TEME
TIME_SYSTEM    = UTC
MEAN_ELEMENT_THEORY = SGP/SGP4

EPOCH          = 2026-02-09T05:47:19.290336
MEAN_MOTION    = 15.11146318
ECCENTRICITY   = .0008059
INCLINATION    = 31.0018
RA_OF_ASC_NODE = 107.6122
ARG_OF_PERICENTER = 115.7992
MEAN_ANOMALY   = 244.3478

EPHEMERIS_TYPE = 0
CLASSIFICATION_TYPE = U
NORAD_CAT_ID   = 57800
ELEMENT_SET_NO = 999
REV_AT_EPOCH   = 13348
BSTAR          = .40858E-3
MEAN_MOTION_DOT = .7124E-4
MEAN_MOTION_DDOT = 0

CCSDS_OMM_VERS = 2.0
CREATION_DATE  = 
ORIGINATOR     = 

OBJECT_NAME    = ACS3
OBJECT_ID      = 2024-077B
CENTER_NAME    = EARTH
REF_FRAME      = TEME
TIME_SYSTEM    = UTC
MEAN_ELEMENT_THEORY = SGP/SGP4

EPOCH          = 2026-02-10T01:15:03.516192
MEAN_MOTION    = 13.88466000
ECCENTRICITY   = .0045666
INCLINATION    = 97.2209
RA_OF_ASC_NODE = 348.3780
ARG_OF_PERICENTER = 162.1621
MEAN_ANOMALY   = 198.1157

EPHEMERIS_TYPE = 0
CLASSIFICATION_TYPE = U
NORAD_CAT_ID   = 59588
ELEMENT_SET_NO = 999
REV_AT_EPOCH   = 9036
BSTAR          = .18066E-1
MEAN_MOTION_DOT = .21895E-3
MEAN_MOTION_DDOT = 0

CCSDS_OMM_VERS = 2.0
CREATION_DATE  = 
ORIGINATOR     = 

OBJECT_NAME    = SZ-21 MODULE
OBJECT_ID      = 2025-246C
CENTER_NAME    = EARTH
REF_FRAME      = TEME
TIME_SYSTEM    = UTC
MEAN_ELEMENT_THEORY = SGP/SGP4

EPOCH          = 2026-02-09T06:34:48.565344
MEAN_MOTION    = 15.66393879
ECCENTRICITY   = .0002766
INCLINATION    = 41.4766
RA_OF_ASC_NODE = 17.9863
ARG_OF_PERICENTER = 286.9466
MEAN_ANOMALY   = 73.1072

EPHEMERIS_TYPE = 0
CLASSIFICATION_TYPE = U
NORAD_CAT_ID   = 66515
ELEMENT_SET_NO = 999
REV_AT_EPOCH   = 1361
BSTAR          = .34919E-3
MEAN_MOTION_DOT = .37161E-3
MEAN_MOTION_DDOT = 0

