CZ-2C R/B               
1 54039U 22132E   26040.99153322  .00035281  00000+0  44287-3 0  9993
2 54039  97.2962  43.5238 0018496 184.5586 175.5505 15.59435353186059
GSLV R/B                
1 54149U 22138AN  26040.83994368  .00004320  00000+0  37608-3 0  9996
2 54149  87.3860 175.6808 0019397 251.3107 108.6019 14.96559791179761
XRISM                   
1 57800U 23137A   26040.24119549  .00007124  00000+0  40858-3 0  9994
2 57800  31.0018 107.6122 0008059 115.7992 244.3478 15.11146318133482
ACS3                    
1 59588U 24077B   26041.05212403  .00021895  00000+0  18066-1 0  9991
2 59588  97.2209 348.3780 0045666 162.1621 198.1157 13.88466000 90361
SZ-21 MODULE            
1 66515U 25246C   26040.27417321  .00037161  00000+0  34919-3 0  9997
2 66515  41.4766  17.9863 0002766 286.9466  73.1072 15.66393879 13617
